NORAD_CAT_ID,OBJECT_NAME,OBJECT_TYPE,EPOCH,MEAN_MOTION,ECCENTRICITY,INCLINATION,RA_OF_ASC_NODE,ARG_OF_PERICENTER,MEAN_ANOMALY,BSTAR,MEAN_MOTION_DOT,MEAN_MOTION_DDOT,TLE_LINE0,TLE_LINE1,TLE_LINE2,SEMIMAJOR_AXIS,PERIOD,APOGEE,PERIGEE,DECAYED
55942.0,STARLINK-5917,PAYLOAD,2024-07-03 19:53:28,14.98267734,0.000253,70.0001,32.0595,263.0063,97.0808,0.0011579,0.00013727,0.0,0 STARLINK-5917,1 55942U 23037AE  24185.82879963  .00013727  00000-0  11579-2 0  9997,2 55942  70.0001  32.0595 0002530 263.0063  97.0808 14.98267734 72371,6950.385,96.111,574.009,570.492,0.0
55942.0,STARLINK-5917,PAYLOAD,2024-07-03 21:29:35,14.98333231,0.0002848,70.0001,31.8912,266.2315,93.8518,6.1332e-07,-8.6e-07,0.0,0 STARLINK-5917,1 55942U 23037AE  24185.89554691 -.00000086  00000-0  61332-6 0  9993,2 55942  70.0001  31.8912 0002848 266.2315  93.8518 14.98333231 72040,6950.183,96.107,574.027,570.068,0.0
55942.0,STARLINK-5917,PAYLOAD,2024-07-04 00:41:51,14.98334095,0.0002842,70.0001,31.5544,266.0714,94.012,1.0164e-05,2.8e-07,0.0,0 STARLINK-5917,1 55942U 23037AE  24186.02906580  .00000028  00000-0  10164-4 0  9997,2 55942  70.0001  31.5544 0002842 266.0714  94.0120 14.98334095 72404,6950.18,96.107,574.02,570.07,0.0
55942.0,STARLINK-5917,PAYLOAD,2024-07-04 15:07:04,14.98328828,0.000288,70.0,30.0394,266.8283,93.2547,3.875e-05,3.69e-06,0.0,0 STARLINK-5917,1 55942U 23037AE  24186.62990777  .00000369  00000-0  38750-4 0  9993,2 55942  70.0000  30.0394 0002880 266.8283  93.2547 14.98328828 72154,6950.197,96.107,574.063,570.06,0.0
55942.0,STARLINK-5917,PAYLOAD,2024-07-04 23:07:44,14.98330476,0.000294,69.9999,29.1974,268.1193,91.963,3.0904e-05,2.76e-06,0.0,0 STARLINK-5917,1 55942U 23037AE  24186.96370721  .00000276  00000-0  30904-4 0  9991,2 55942  69.9999  29.1974 0002940 268.1193  91.9630 14.98330476 72209,6950.191,96.107,574.1,570.013,0.0
55942.0,STARLINK-5917,PAYLOAD,2024-07-05 13:32:56,14.98328992,0.0003052,69.9996,27.6822,269.8348,90.2461,4.8027e-05,4.8e-06,0.0,0 STARLINK-5917,1 55942U 23037AE  24187.56454728  .00000480  00000-0  48027-4 0  9990,2 55942  69.9996  27.6822 0003052 269.8348  90.2461 14.98328992 72637,6950.196,96.107,574.182,569.94,0.0
55942.0,STARLINK-5917,PAYLOAD,2024-07-05 21:33:36,14.98334076,0.0003065,69.9996,26.8406,270.049,90.0317,4.4246e-05,4.35e-06,0.0,0 STARLINK-5917,1 55942U 23037AE  24187.89834418  .00000435  00000-0  44246-4 0  9993,2 55942  69.9996  26.8406 0003065 270.0490  90.0317 14.98334076 72348,6950.18,96.107,574.176,569.915,0.0
55942.0,STARLINK-5917,PAYLOAD,2024-07-06 13:34:57,14.98328588,0.0003017,69.9998,25.157,270.3473,89.734,4.7804e-05,4.77e-06,0.0,0 STARLINK-5917,1 55942U 23037AE  24188.56594658  .00000477  00000-0  47804-4 0  9996,2 55942  69.9998  25.1570 0003017 270.3473  89.7340 14.98328588 72785,6950.197,96.107,574.159,569.965,0.0
55942.0,STARLINK-5917,PAYLOAD,2024-07-06 21:35:38,14.98330599,0.0003043,69.9998,24.3156,270.6649,89.4161,3.6458e-05,3.42e-06,0.0,0 STARLINK-5917,1 55942U 23037AE  24188.89974588  .00000342  00000-0  36458-4 0  9990,2 55942  69.9998  24.3156 0003043 270.6649  89.4161 14.98330599 72494,6950.191,96.107,574.171,569.941,0.0
55942.0,STARLINK-5917,PAYLOAD,2024-07-06 23:11:46,14.98330999,0.0003042,69.9998,24.1473,270.6856,89.3954,4.0001e-05,3.84e-06,0.0,0 STARLINK-5917,1 55942U 23037AE  24188.96650551  .00000384  00000-0  40001-4 0  9994,2 55942  69.9998  24.1473 0003042 270.6856  89.3954 14.98330999 72508,6950.19,96.107,574.169,569.941,0.0
55942.0,STARLINK-5917,PAYLOAD,2024-07-07 20:01:30,14.9833306,0.0003027,69.9999,21.959,271.1411,88.9401,3.833e-05,3.64e-06,0.0,0 STARLINK-5917,1 55942U 23037AE  24189.83438389  .00000364  00000-0  38330-4 0  9994,2 55942  69.9999  21.9590 0003027 271.1411  88.9401 14.98333060 72975,6950.183,96.107,574.152,569.945,0.0
55942.0,STARLINK-5917,PAYLOAD,2024-07-08 13:38:59,14.9832882,0.0002934,70.0002,20.1075,272.8439,87.2384,1.3508e-05,6.8e-07,0.0,0 STARLINK-5917,1 55942U 23037AE  24190.56874635  .00000068  00000-0  13508-4 0  9995,2 55942  70.0002  20.1075 0002934 272.8439  87.2384 14.98328820 72741,6950.197,96.107,574.101,570.022,0.0
55942.0,STARLINK-5917,PAYLOAD,2024-07-08 20:03:31,14.98330653,0.0002893,70.0003,19.4352,268.7855,91.2972,4.1177e-05,3.98e-06,0.0,0 STARLINK-5917,1 55942U 23037AE  24190.83578441  .00000398  00000-0  41177-4 0  9990,2 55942  70.0003  19.4352 0002893 268.7855  91.2972 14.98330653 73129,6950.191,96.107,574.067,570.045,0.0
55942.0,STARLINK-5917,PAYLOAD,2024-07-08 21:39:39,14.98331319,0.0002888,70.0004,19.2669,268.7122,91.3706,4.7664e-05,4.76e-06,0.0,0 STARLINK-5917,1 55942U 23037AE  24190.90254377  .00000476  00000-0  47664-4 0  9991,2 55942  70.0004  19.2669 0002888 268.7122  91.3706 14.98331319 72798,6950.189,96.107,574.061,570.047,0.0
55942.0,STARLINK-5917,PAYLOAD,2024-07-09 13:41:00,14.98332109,0.000283,70.0004,17.583,265.5659,94.5177,2.272e-05,1.78e-06,0.0,0 STARLINK-5917,1 55942U 23037AE  24191.57014306  .00000178  00000-0  22720-4 0  9996,2 55942  70.0004  17.5830 0002830 265.5659  94.5177 14.98332109 72892,6950.186,96.107,574.018,570.084,0.0
55942.0,STARLINK-5917,PAYLOAD,2024-07-09 20:05:32,14.98332084,0.0002857,70.0004,16.9098,264.8886,95.1947,1.8554e-05,1.28e-06,0.0,0 STARLINK-5917,1 55942U 23037AE  24191.83718290  .00000128  00000-0  18554-4 0  9993,2 55942  70.0004  16.9098 0002857 264.8886  95.1947 14.98332084 73271,6950.186,96.107,574.037,570.066,0.0
55942.0,STARLINK-5917,PAYLOAD,2024-07-09 21:41:40,14.98332683,0.0002855,70.0005,16.7415,264.8237,95.2596,2.4716e-05,2.02e-06,0.0,0 STARLINK-5917,1 55942U 23037AE  24191.90394225  .00000202  00000-0  24716-4 0  9999,2 55942  70.0005  16.7415 0002855 264.8237  95.2596 14.98332683 72940,6950.185,96.107,574.034,570.065,0.0
55942.0,STARLINK-5917,PAYLOAD,2024-07-10 12:06:53,14.98325687,0.00029,70.0002,15.2258,270.634,89.4487,1.3751e-05,7.1e-07,0.0,0 STARLINK-5917,1 55942U 23037AE  24192.50478715  .00000071  00000-0  13751-4 0  9994,2 55942  70.0002  15.2258 0002900 270.6340  89.4487 14.98325687 73038,6950.206,96.107,574.087,570.056,0.0
55942.0,STARLINK-5917,PAYLOAD,2024-07-10 20:07:33,14.98328046,0.0002925,70.0001,14.3839,270.6187,89.4637,7.2062e-06,-7e-08,0.0,0 STARLINK-5917,1 55942U 23037AE  24192.83858634 -.00000007  00000-0  72062-5 0  9993,2 55942  70.0001  14.3839 0002925 270.6187  89.4637 14.98328046 73420,6950.199,96.107,574.097,570.031,0.0
55942.0,STARLINK-5917,PAYLOAD,2024-07-10 21:43:41,14.98329073,0.0002922,70.0002,14.2156,270.6376,89.4448,1.8366e-05,1.26e-06,0.0,0 STARLINK-5917,1 55942U 23037AE  24192.90534545  .00000126  00000-0  18366-4 0  9990,2 55942  70.0002  14.2156 0002922 270.6376  89.4448 14.98329073 73093,6950.196,96.107,574.092,570.03,0.0
55942.0,STARLINK-5917,PAYLOAD,2024-07-11 13:45:02,14.98332206,0.0002949,70.0002,12.5313,270.4614,89.6208,6.5923e-05,6.94e-06,0.0,0 STARLINK-5917,1 55942U 23037AE  24193.57294169  .00000694  00000-0  65923-4 0  9990,2 55942  70.0002  12.5313 0002949 270.4614  89.6208 14.98332206 73190,6950.186,96.107,574.101,570.001,0.0
55942.0,STARLINK-5917,PAYLOAD,2024-07-11 18:33:26,14.98334232,0.0002986,70.0003,12.0272,270.9009,89.1808,6.919e-05,7.33e-06,0.0,0 STARLINK-5917,1 55942U 23037AE  24193.77322010  .00000733  00000-0  69190-4 0  9993,2 55942  70.0003  12.0272 0002986 270.9009  89.1808 14.98334232 73567,6950.18,96.107,574.12,569.969,0.0
55942.0,STARLINK-5917,PAYLOAD,2024-07-12 13:47:03,14.98326246,0.0002937,70.0006,10.0073,271.0545,89.0278,3.677e-05,3.46e-06,0.0,0 STARLINK-5917,1 55942U 23037AE  24194.57434616  .00000346  00000-0  36770-4 0  9996,2 55942  70.0006  10.0073 0002937 271.0545  89.0278 14.98326246 73689,6950.204,96.107,574.111,570.028,0.0
55942.0,STARLINK-5917,PAYLOAD,2024-07-12 21:47:43,14.98329465,0.0002948,70.0007,9.1656,270.7197,89.3624,4.8529e-05,4.86e-06,0.0,0 STARLINK-5917,1 55942U 23037AE  24194.90814417  .00000486  00000-0  48529-4 0  9994,2 55942  70.0007   9.1656 0002948 270.7197  89.3624 14.98329465 73399,6950.195,96.107,574.108,570.011,0.0
55942.0,STARLINK-5917,PAYLOAD,2024-07-13 13:49:04,14.98333091,0.0002949,70.0007,7.4823,270.7407,89.3414,1.0204e-05,2.9e-07,0.0,0 STARLINK-5917,1 55942U 23037AE  24195.57574262  .00000029  00000-0  10204-4 0  9991,2 55942  70.0007   7.4823 0002949 270.7407  89.3414 14.98333091 73837,6950.183,96.107,574.098,569.999,0.0
55942.0,STARLINK-5917,PAYLOAD,2024-07-13 21:49:44,14.98334183,0.0002993,70.0008,6.641,271.0748,89.0068,2.112e-05,1.59e-06,0.0,0 STARLINK-5917,1 55942U 23037AE  24195.90954133  .00000159  00000-0  21120-4 0  9990,2 55942  70.0008   6.6410 0002993 271.0748  89.0068 14.98334183 73545,6950.18,96.107,574.125,569.965,0.0
55942.0,STARLINK-5917,PAYLOAD,2024-07-14 13:51:05,14.9833027,0.0003046,70.0007,4.9578,268.9124,91.1686,5.6455e-05,5.81e-06,0.0,0 STARLINK-5917,1 55942U 23037AE  24196.57714230  .00000581  00000-0  56455-4 0  9994,2 55942  70.0007   4.9578 0003046 268.9124  91.1686 14.98330270 73647,6950.192,96.107,574.174,569.94,0.0
55942.0,STARLINK-5917,PAYLOAD,2024-07-14 20:15:37,14.98334233,0.0002971,70.0009,4.2851,266.2847,93.7973,9.666e-05,1.061e-05,0.0,0 STARLINK-5917,1 55942U 23037AE  24196.84417848  .00001061  00000-0  96660-4 0  9995,2 55942  70.0009   4.2851 0002971 266.2847  93.7973 14.98334233 74028,6950.18,96.107,574.11,569.98,0.0
55942.0,STARLINK-5917,PAYLOAD,2024-07-15 13:53:06,14.9833065,0.0002933,70.0011,2.4337,265.5194,94.563,2.8572e-05,2.48e-06,0.0,0 STARLINK-5917,1 55942U 23037AE  24197.57854169  .00000248  00000-0  28572-4 0  9990,2 55942  70.0011   2.4337 0002933 265.5194  94.5630 14.98330650 73796,6950.191,96.107,574.094,570.017,0.0
55942.0,STARLINK-5917,PAYLOAD,2024-07-15 20:17:38,14.98332461,0.0002926,70.0012,1.7603,266.371,93.7115,4.3197e-05,4.23e-06,0.0,0 STARLINK-5917,1 55942U 23037AE  24197.84557956  .00000423  00000-0  43197-4 0  9999,2 55942  70.0012   1.7603 0002926 266.3710  93.7115 14.98332461 74174,6950.185,96.107,574.084,570.017,0.0
